NORAD_CAT_ID,OBJECT_NAME,OBJECT_TYPE,EPOCH,MEAN_MOTION,ECCENTRICITY,INCLINATION,RA_OF_ASC_NODE,ARG_OF_PERICENTER,MEAN_ANOMALY,BSTAR,MEAN_MOTION_DOT,MEAN_MOTION_DDOT,TLE_LINE0,TLE_LINE1,TLE_LINE2,SEMIMAJOR_AXIS,PERIOD,APOGEE,PERIGEE,DECAYED
55961.0,STARLINK-5933,PAYLOAD,2024-03-08 09:20:46,14.98328576,0.0002758,69.9991,308.237,268.7155,91.3688,4.2643e-05,4.16e-06,0.0,0 STARLINK-5933,1 55961U 23037AZ  24068.38942763  .00000416  00000-0  42643-4 0  9997,2 55961  69.9991 308.2370 0002758 268.7155  91.3688 14.98328576 54939,6950.197,96.107,573.979,570.145,0.0
55961.0,STARLINK-5933,PAYLOAD,2024-03-08 15:45:18,14.98331105,0.0002814,69.9988,307.5636,268.72,91.3636,3.2964e-05,3e-06,0.0,0 STARLINK-5933,1 55961U 23037AZ  24068.65646636  .00000300  00000-0  32964-4 0  9994,2 55961  69.9988 307.5636 0002814 268.7200  91.3636 14.98331105 54975,6950.189,96.107,574.01,570.099,0.0
55961.0,STARLINK-5933,PAYLOAD,2024-03-09 01:22:06,14.98332516,0.0002808,69.9988,306.5536,268.784,91.2997,4.514e-05,4.46e-06,0.0,0 STARLINK-5933,1 55961U 23037AZ  24069.05702455  .00000446  00000-0  45140-4 0  9992,2 55961  69.9988 306.5536 0002808 268.7840  91.2997 14.98332516 55377,6950.185,96.107,574.002,570.098,0.0
55961.0,STARLINK-5933,PAYLOAD,2024-03-09 09:22:47,14.98330998,0.0002703,69.9989,305.7113,269.5365,90.5484,3.0552e-05,2.72e-06,0.0,0 STARLINK-5933,1 55961U 23037AZ  24069.39082544  .00000272  00000-0  30552-4 0  9997,2 55961  69.9989 305.7113 0002703 269.5365  90.5484 14.98330998 55088,6950.19,96.107,573.933,570.176,0.0
55961.0,STARLINK-5933,PAYLOAD,2024-03-09 22:11:51,14.9832602,0.0002817,69.9989,304.3647,269.3419,90.7418,8.5578e-05,9.28e-06,0.0,0 STARLINK-5933,1 55961U 23037AZ  24069.92490619  .00000928  00000-0  85578-4 0  9998,2 55961  69.9989 304.3647 0002817 269.3419  90.7418 14.98326020 55168,6950.205,96.107,574.028,570.112,0.0
55961.0,STARLINK-5933,PAYLOAD,2024-03-10 01:24:07,14.98330562,0.0002826,69.9986,304.0281,269.7076,90.3759,-4.2307e-06,-1.43e-06,0.0,0 STARLINK-5933,1 55961U 23037AZ  24070.05842570 -.00000143  00000-0 -42307-5 0  9996,2 55961  69.9986 304.0281 0002826 269.7076  90.3759 14.98330562 55529,6950.191,96.107,574.02,570.092,0.0
55961.0,STARLINK-5933,PAYLOAD,2024-03-10 09:24:48,14.98329144,0.0002799,69.9987,303.1862,270.0317,90.0521,-2.4806e-05,-3.89e-06,0.0,0 STARLINK-5933,1 55961U 23037AZ  24070.39222699 -.00000389  00000-0 -24806-4 0  9992,2 55961  69.9987 303.1862 0002799 270.0317  90.0521 14.98329144 55233,6950.196,96.107,574.006,570.115,0.0
55961.0,STARLINK-5933,PAYLOAD,2024-03-10 20:37:43,14.98355903,0.0003626,69.9989,302.0065,267.4245,92.6499,-0.00045409,-5.511e-05,0.0,0 STARLINK-5933,1 55961U 23037AZ  24070.85953613 -.00005511  00000-0 -45409-3 0  9993,2 55961  69.9989 302.0065 0003626 267.4245  92.6499 14.98355903 55647,6950.113,96.105,574.498,569.458,0.0
55961.0,STARLINK-5933,PAYLOAD,2024-03-10 22:13:50,14.98358888,0.000272,69.9997,301.8394,269.6072,90.4776,0.00028696,3.335e-05,0.0,0 STARLINK-5933,1 55961U 23037AZ  24070.92628160  .00003335  00000-0  28696-3 0  9996,2 55961  69.9997 301.8394 0002720 269.6072  90.4776 14.98358888 55317,6950.104,96.105,573.859,570.078,0.0
55961.0,STARLINK-5933,PAYLOAD,2024-03-11 01:26:08,14.98333926,0.0003123,69.9979,301.5034,271.7984,88.2818,-1.423e-05,-2.63e-06,0.0,0 STARLINK-5933,1 55961U 23037AZ  24071.05982313 -.00000263  00000-0 -14230-4 0  9993,2 55961  69.9979 301.5034 0003123 271.7984  88.2818 14.98333926 55676,6950.181,96.107,574.216,569.875,0.0
55961.0,STARLINK-5933,PAYLOAD,2024-03-12 01:28:09,14.98319313,0.0003433,69.998,298.9792,272.3399,87.7367,0.00021912,2.522e-05,0.0,0 STARLINK-5933,1 55961U 23037AZ  24072.06122483  .00002522  00000-0  21912-3 0  9991,2 55961  69.9980 298.9792 0003433 272.3399  87.7367 14.98319313 55823,6950.226,96.108,574.477,569.705,0.0
55961.0,STARLINK-5933,PAYLOAD,2024-03-12 20:41:46,14.9832967,0.0002898,69.9991,296.958,270.8206,89.2621,3.6386e-05,3.41e-06,0.0,0 STARLINK-5933,1 55961U 23037AZ  24072.86234385  .00000341  00000-0  36386-4 0  9993,2 55961  69.9991 296.9580 0002898 270.8206  89.2621 14.98329670 55605,6950.194,96.107,574.073,570.045,0.0
55961.0,STARLINK-5933,PAYLOAD,2024-03-13 07:54:42,14.98343745,0.0002947,69.9984,295.7797,271.0539,89.0282,-0.00021364,-2.642e-05,0.0,0 STARLINK-5933,1 55961U 23037AZ  24073.32966030 -.00002642  00000-0 -21364-3 0  9991,2 55961  69.9984 295.7797 0002947 271.0539  89.0282 14.98343745 56017,6950.15,96.106,574.064,569.967,0.0
55961.0,STARLINK-5933,PAYLOAD,2024-03-13 14:19:15,14.98329144,0.0002879,69.9988,295.1068,270.8518,89.2311,-2.3256e-05,-3.7e-06,0.0,0 STARLINK-5933,1 55961U 23037AZ  24073.59670543 -.00000370  00000-0 -23256-4 0  9990,2 55961  69.9988 295.1068 0002879 270.8518  89.2311 14.98329144 55712,6950.196,96.107,574.061,570.06,0.0
55961.0,STARLINK-5933,PAYLOAD,2024-03-13 20:43:47,14.98329915,0.000286,69.9986,294.4336,270.3788,89.7044,-1.2358e-05,-2.4e-06,0.0,0 STARLINK-5933,1 55961U 23037AZ  24073.86374449 -.00000240  00000-0 -12358-4 0  9993,2 55961  69.9986 294.4336 0002860 270.3788  89.7044 14.98329915 56090,6950.193,96.107,574.046,570.07,0.0
55961.0,STARLINK-5933,PAYLOAD,2024-03-13 22:19:55,14.98330241,0.0002854,69.998,294.2652,270.6784,89.4048,-1.206e-05,-2.37e-06,0.0,0 STARLINK-5933,1 55961U 23037AZ  24073.93050429 -.00000237  00000-0 -12060-4 0  9996,2 55961  69.9980 294.2652 0002854 270.6784  89.4048 14.98330241 55763,6950.192,96.107,574.041,570.074,0.0
55961.0,STARLINK-5933,PAYLOAD,2024-03-13 23:56:03,14.9833078,0.0002848,69.9983,294.0969,270.7491,89.3342,-4.422e-06,-1.46e-06,0.0,0 STARLINK-5933,1 55961U 23037AZ  24073.99726367 -.00000146  00000-0 -44220-5 0  9996,2 55961  69.9983 294.0969 0002848 270.7491  89.3342 14.98330780 55779,6950.19,96.107,574.035,570.076,0.0
55961.0,STARLINK-5933,PAYLOAD,2024-03-14 20:45:48,14.98330466,0.0002923,69.9983,291.9083,269.9216,90.1608,-6.4836e-05,-8.67e-06,0.0,0 STARLINK-5933,1 55961U 23037AZ  24074.86514560 -.00000867  00000-0 -64836-4 0  9997,2 55961  69.9983 291.9083 0002923 269.9216  90.1608 14.98330466 56240,6950.191,96.107,574.088,570.025,0.0
55961.0,STARLINK-5933,PAYLOAD,2024-03-14 22:21:56,14.98327568,0.0002802,69.9984,291.7401,270.4951,89.5887,-1.7506e-05,-3.02e-06,0.0,0 STARLINK-5933,1 55961U 23037AZ  24074.93190599 -.00000302  00000-0 -17506-4 0  9993,2 55961  69.9984 291.7401 0002802 270.4951  89.5887 14.98327568 55915,6950.2,96.107,574.013,570.118,0.0
55961.0,STARLINK-5933,PAYLOAD,2024-03-15 22:23:57,14.98331687,0.0002905,69.9979,289.2138,269.3277,90.7549,1.9169e-05,1.36e-06,0.0,0 STARLINK-5933,1 55961U 23037AZ  24075.93330190  .00000136  00000-0  19169-4 0  9997,2 55961  69.9979 289.2138 0002905 269.3277  90.7549 14.98331687 56063,6950.188,96.107,574.072,570.034,0.0
55961.0,STARLINK-5933,PAYLOAD,2024-03-16 00:00:05,14.98332154,0.0002906,69.9979,289.0455,269.5379,90.5447,2.3889e-05,1.92e-06,0.0,0 STARLINK-5933,1 55961U 23037AZ  24076.00006141  .00000192  00000-0  23889-4 0  9998,2 55961  69.9979 289.0455 0002906 269.5379  90.5447 14.98332154 56413,6950.186,96.107,574.071,570.032,0.0
55961.0,STARLINK-5933,PAYLOAD,2024-03-16 14:25:18,14.98328535,0.0002883,69.998,287.529,269.299,90.7838,1.931e-05,1.37e-06,0.0,0 STARLINK-5933,1 55961U 23037AZ  24076.60090356  .00000137  00000-0  19310-4 0  9998,2 55961  69.9980 287.5290 0002883 269.2990  90.7838 14.98328535 56161,6950.197,96.107,574.066,570.059,0.0
55961.0,STARLINK-5933,PAYLOAD,2024-03-16 22:25:58,14.98329185,0.000296,69.9979,286.6885,271.7534,88.3286,7.0266e-06,-9e-08,0.0,0 STARLINK-5933,1 55961U 23037AZ  24076.93470386 -.00000009  00000-0  70266-5 0  9996,2 55961  69.9979 286.6885 0002960 271.7534  88.3286 14.98329185 56215,6950.195,96.107,574.118,570.003,0.0
55961.0,STARLINK-5933,PAYLOAD,2024-03-17 00:02:06,14.98329766,0.0002965,69.9979,286.5203,271.6224,88.4596,1.2648e-05,5.8e-07,0.0,0 STARLINK-5933,1 55961U 23037AZ  24077.00146331  .00000058  00000-0  12648-4 0  9997,2 55961  69.9979 286.5203 0002965 271.6224  88.4596 14.98329766 56566,6950.194,96.107,574.119,569.998,0.0
55961.0,STARLINK-5933,PAYLOAD,2024-03-17 14:27:18,14.98331553,0.0002989,69.9979,285.006,271.2246,88.8571,1.6553e-05,1.04e-06,0.0,0 STARLINK-5933,1 55961U 23037AZ  24077.60230113  .00000104  00000-0  16553-4 0  9996,2 55961  69.9979 285.0060 0002989 271.2246  88.8571 14.98331553 56314,6950.188,96.107,574.13,569.976,0.0
55961.0,STARLINK-5933,PAYLOAD,2024-03-17 22:27:59,14.98332414,0.000298,69.9979,284.164,270.6108,89.471,2.4339e-05,1.97e-06,0.0,0 STARLINK-5933,1 55961U 23037AZ  24077.93609983  .00000197  00000-0  24339-4 0  9990,2 55961  69.9979 284.1640 0002980 270.6108  89.4710 14.98332414 56363,6950.185,96.107,574.122,569.979,0.0
55961.0,STARLINK-5933,PAYLOAD,2024-03-18 00:04:06,14.98333734,0.0002946,69.998,283.995,269.1459,90.9363,3.5613e-05,3.32e-06,0.0,0 STARLINK-5933,1 55961U 23037AZ  24078.00285848  .00000332  00000-0  35613-4 0  9997,2 55961  69.9980 283.9950 0002946 269.1459  90.9363 14.98333734 56716,6950.181,96.107,574.094,569.999,0.0
55961.0,STARLINK-5933,PAYLOAD,2024-03-18 20:53:52,14.98327123,0.0002845,69.9981,281.8072,262.6565,97.427,-1.3143e-05,-2.5e-06,0.0,0 STARLINK-5933,1 55961U 23037AZ  24078.87074335 -.00000250  00000-0 -13143-4 0  9994,2 55961  69.9981 281.8072 0002845 262.6565  97.4270 14.98327123 56841,6950.202,96.107,574.044,570.089,0.0
55961.0,STARLINK-5933,PAYLOAD,2024-03-18 22:30:00,14.98326637,0.0002858,69.9981,281.6388,263.6189,96.4644,-1.9618e-05,-3.27e-06,0.0,0 STARLINK-5933,1 55961U 23037AZ  24078.93750396 -.00000327  00000-0 -19618-4 0  9997,2 55961  69.9981 281.6388 0002858 263.6189  96.4644 14.98326637 56513,6950.203,96.107,574.055,570.082,0.0
55961.0,STARLINK-5933,PAYLOAD,2024-03-19 00:06:08,14.98325992,0.0002878,69.998,281.4706,264.3713,95.7117,-2.9285e-05,-4.42e-06,0.0,0 STARLINK-5933,1 55961U 23037AZ  24079.00426471 -.00000442  00000-0 -29285-4 0  9999,2 55961  69.9980 281.4706 0002878 264.3713  95.7117 14.98325992 56528,6950.205,96.107,574.071,570.07,0.0
